SKYSAT-C4               
1 41771U 16058B   26179.96204948  .00015723  00000+0  29246-3 0  9990
2 41771  96.9170 201.2427 0002284 139.8061 220.3360 15.48951488547292
SKYSAT-C5               
1 41772U 16058C   26179.64583985  .00007110  00000+0  21411-3 0  9994
2 41772  97.0464 219.7751 0001435 208.0815 152.0351 15.34628337545500
SKYSAT-C2               
1 41773U 16058D   26179.61433185  .00011210  00000+0  26192-3 0  9995
2 41773  97.0161 201.2800 0003598  45.6227 314.5315 15.42324248546813
SKYSAT-C3               
1 41774U 16058E   26179.61442098  .00021246  00000+0  34152-3 0  9994
2 41774  96.9005 210.0237 0001291 126.3483 233.7891 15.53021167547885
SKYSAT-C11              
1 42987U 17068A   26179.93800066  .00026347  00000+0  34611-3 0  9998
2 42987  97.4357 329.2853 0000459 138.8930 221.2361 15.58496008485076
SKYSAT-C10              
1 42988U 17068B   26179.89800299  .00008389  00000+0  25080-3 0  9998
2 42988  97.4514 316.8608 0001211 107.5234 252.6141 15.34829526484150
SKYSAT-C9               
1 42989U 17068C   26179.92202452  .00012739  00000+0  30189-3 0  9990
2 42989  97.4437 317.9324 0009487  96.2624 263.9703 15.41845493484565
SKYSAT-C8               
1 42990U 17068D   26179.91655018  .00009941  00000+0  27513-3 0  9999
2 42990  97.4533 316.7242 0001327  94.8960 265.2436 15.37199088484118
SKYSAT-C7               
1 42991U 17068E   26179.91053481  .00009595  00000+0  26587-3 0  9991
2 42991  97.4543 317.7083 0006933  72.1944 288.0056 15.37151824484176
SKYSAT-C6               
1 42992U 17068F   26179.95230963  .00008592  00000+0  26219-3 0  9996
2 42992  97.4580 317.6745 0005206 118.8840 241.2926 15.34160511484129
