{
 "generated_at": "2026-06-29T09:26:28Z",
 "sources": [
  {
   "name": "CelesTrak",
   "url": "https://celestrak.org/NORAD/elements/",
   "license": "frei verfügbar; Attribution. Ursprünglich USSPACECOM/Space-Track."
  },
  {
   "name": "GCAT (J. McDowell, planet4589.org)",
   "url": "https://planet4589.org/space/gcat/",
   "license": "CC-BY 4.0"
  }
 ],
 "satellites": [
  {
   "norad": 42988,
   "name": "SKYSAT-C10",
   "intl": "2017-068B",
   "group": "resource",
   "gcat": {
    "class": "B",
    "category": "IMG",
    "owner": "PLABST",
    "state": "US"
   },
   "omm": {
    "OBJECT_NAME": "SKYSAT-C10",
    "OBJECT_ID": "2017-068B",
    "EPOCH": "2026-06-28T21:33:07.458336",
    "MEAN_MOTION": 15.34829526,
    "ECCENTRICITY": 0.00012117,
    "INCLINATION": 97.4514,
    "RA_OF_ASC_NODE": 316.8608,
    "ARG_OF_PERICENTER": 107.5234,
    "MEAN_ANOMALY": 252.6141,
    "EPHEMERIS_TYPE": 0,
    "CLASSIFICATION_TYPE": "U",
    "NORAD_CAT_ID": 42988,
    "ELEMENT_SET_NO": 999,
    "REV_AT_EPOCH": 48415,
    "BSTAR": 0.00025080332,
    "MEAN_MOTION_DOT": 0.00008389,
    "MEAN_MOTION_DDOT": 0
   }
  },
  {
   "norad": 42987,
   "name": "SKYSAT-C11",
   "intl": "2017-068A",
   "group": "resource",
   "gcat": {
    "class": "B",
    "category": "IMG",
    "owner": "PLABST",
    "state": "US"
   },
   "omm": {
    "OBJECT_NAME": "SKYSAT-C11",
    "OBJECT_ID": "2017-068A",
    "EPOCH": "2026-06-28T22:30:43.257024",
    "MEAN_MOTION": 15.58496008,
    "ECCENTRICITY": 0.00004596,
    "INCLINATION": 97.4357,
    "RA_OF_ASC_NODE": 329.2853,
    "ARG_OF_PERICENTER": 138.893,
    "MEAN_ANOMALY": 221.2361,
    "EPHEMERIS_TYPE": 0,
    "CLASSIFICATION_TYPE": "U",
    "NORAD_CAT_ID": 42987,
    "ELEMENT_SET_NO": 999,
    "REV_AT_EPOCH": 48507,
    "BSTAR": 0.00034610515,
    "MEAN_MOTION_DOT": 0.00026347,
    "MEAN_MOTION_DDOT": 0
   }
  },
  {
   "norad": 41773,
   "name": "SKYSAT-C2",
   "intl": "2016-058D",
   "group": "resource",
   "gcat": {
    "class": "B",
    "category": "IMG",
    "owner": "TBELLA",
    "state": "US"
   },
   "omm": {
    "OBJECT_NAME": "SKYSAT-C2",
    "OBJECT_ID": "2016-058D",
    "EPOCH": "2026-06-28T14:44:38.271840",
    "MEAN_MOTION": 15.42324248,
    "ECCENTRICITY": 0.00035988,
    "INCLINATION": 97.0161,
    "RA_OF_ASC_NODE": 201.28,
    "ARG_OF_PERICENTER": 45.6227,
    "MEAN_ANOMALY": 314.5315,
    "EPHEMERIS_TYPE": 0,
    "CLASSIFICATION_TYPE": "U",
    "NORAD_CAT_ID": 41773,
    "ELEMENT_SET_NO": 999,
    "REV_AT_EPOCH": 54681,
    "BSTAR": 0.00026192374,
    "MEAN_MOTION_DOT": 0.0001121,
    "MEAN_MOTION_DDOT": 0
   }
  },
  {
   "norad": 41774,
   "name": "SKYSAT-C3",
   "intl": "2016-058E",
   "group": "resource",
   "gcat": {
    "class": "B",
    "category": "IMG",
    "owner": "TBELLA",
    "state": "US"
   },
   "omm": {
    "OBJECT_NAME": "SKYSAT-C3",
    "OBJECT_ID": "2016-058E",
    "EPOCH": "2026-06-28T14:44:45.972672",
    "MEAN_MOTION": 15.53021167,
    "ECCENTRICITY": 0.00012919,
    "INCLINATION": 96.9005,
    "RA_OF_ASC_NODE": 210.0237,
    "ARG_OF_PERICENTER": 126.3483,
    "MEAN_ANOMALY": 233.7891,
    "EPHEMERIS_TYPE": 0,
    "CLASSIFICATION_TYPE": "U",
    "NORAD_CAT_ID": 41774,
    "ELEMENT_SET_NO": 999,
    "REV_AT_EPOCH": 54788,
    "BSTAR": 0.00034151907,
    "MEAN_MOTION_DOT": 0.00021246,
    "MEAN_MOTION_DDOT": 0
   }
  },
  {
   "norad": 41771,
   "name": "SKYSAT-C4",
   "intl": "2016-058B",
   "group": "resource",
   "gcat": {
    "class": "B",
    "category": "IMG",
    "owner": "TBELLA",
    "state": "US"
   },
   "omm": {
    "OBJECT_NAME": "SKYSAT-C4",
    "OBJECT_ID": "2016-058B",
    "EPOCH": "2026-06-28T23:05:21.075072",
    "MEAN_MOTION": 15.48951488,
    "ECCENTRICITY": 0.00022843,
    "INCLINATION": 96.917,
    "RA_OF_ASC_NODE": 201.2427,
    "ARG_OF_PERICENTER": 139.8061,
    "MEAN_ANOMALY": 220.336,
    "EPHEMERIS_TYPE": 0,
    "CLASSIFICATION_TYPE": "U",
    "NORAD_CAT_ID": 41771,
    "ELEMENT_SET_NO": 999,
    "REV_AT_EPOCH": 54729,
    "BSTAR": 0.00029245694,
    "MEAN_MOTION_DOT": 0.00015723,
    "MEAN_MOTION_DDOT": 0
   }
  },
  {
   "norad": 41772,
   "name": "SKYSAT-C5",
   "intl": "2016-058C",
   "group": "resource",
   "gcat": {
    "class": "B",
    "category": "IMG",
    "owner": "TBELLA",
    "state": "US"
   },
   "omm": {
    "OBJECT_NAME": "SKYSAT-C5",
    "OBJECT_ID": "2016-058C",
    "EPOCH": "2026-06-28T15:30:00.563040",
    "MEAN_MOTION": 15.34628337,
    "ECCENTRICITY": 0.0001435,
    "INCLINATION": 97.0464,
    "RA_OF_ASC_NODE": 219.7751,
    "ARG_OF_PERICENTER": 208.0815,
    "MEAN_ANOMALY": 152.0351,
    "EPHEMERIS_TYPE": 0,
    "CLASSIFICATION_TYPE": "U",
    "NORAD_CAT_ID": 41772,
    "ELEMENT_SET_NO": 999,
    "REV_AT_EPOCH": 54550,
    "BSTAR": 0.00021411383,
    "MEAN_MOTION_DOT": 0.0000711,
    "MEAN_MOTION_DDOT": 0
   }
  },
  {
   "norad": 42992,
   "name": "SKYSAT-C6",
   "intl": "2017-068F",
   "group": "resource",
   "gcat": {
    "class": "B",
    "category": "IMG",
    "owner": "PLABST",
    "state": "US"
   },
   "omm": {
    "OBJECT_NAME": "SKYSAT-C6",
    "OBJECT_ID": "2017-068F",
    "EPOCH": "2026-06-28T22:51:19.552032",
    "MEAN_MOTION": 15.34160511,
    "ECCENTRICITY": 0.00052066,
    "INCLINATION": 97.458,
    "RA_OF_ASC_NODE": 317.6745,
    "ARG_OF_PERICENTER": 118.884,
    "MEAN_ANOMALY": 241.2926,
    "EPHEMERIS_TYPE": 0,
    "CLASSIFICATION_TYPE": "U",
    "NORAD_CAT_ID": 42992,
    "ELEMENT_SET_NO": 999,
    "REV_AT_EPOCH": 48412,
    "BSTAR": 0.0002621852,
    "MEAN_MOTION_DOT": 0.00008592,
    "MEAN_MOTION_DDOT": 0
   }
  },
  {
   "norad": 42991,
   "name": "SKYSAT-C7",
   "intl": "2017-068E",
   "group": "resource",
   "gcat": {
    "class": "B",
    "category": "IMG",
    "owner": "PLABST",
    "state": "US"
   },
   "omm": {
    "OBJECT_NAME": "SKYSAT-C7",
    "OBJECT_ID": "2017-068E",
    "EPOCH": "2026-06-28T21:51:10.207584",
    "MEAN_MOTION": 15.37151824,
    "ECCENTRICITY": 0.00069336,
    "INCLINATION": 97.4543,
    "RA_OF_ASC_NODE": 317.7083,
    "ARG_OF_PERICENTER": 72.1944,
    "MEAN_ANOMALY": 288.0056,
    "EPHEMERIS_TYPE": 0,
    "CLASSIFICATION_TYPE": "U",
    "NORAD_CAT_ID": 42991,
    "ELEMENT_SET_NO": 999,
    "REV_AT_EPOCH": 48417,
    "BSTAR": 0.00026586846,
    "MEAN_MOTION_DOT": 0.00009595,
    "MEAN_MOTION_DDOT": 0
   }
  },
  {
   "norad": 42990,
   "name": "SKYSAT-C8",
   "intl": "2017-068D",
   "group": "resource",
   "gcat": {
    "class": "B",
    "category": "IMG",
    "owner": "PLABST",
    "state": "US"
   },
   "omm": {
    "OBJECT_NAME": "SKYSAT-C8",
    "OBJECT_ID": "2017-068D",
    "EPOCH": "2026-06-28T21:59:49.935552",
    "MEAN_MOTION": 15.37199088,
    "ECCENTRICITY": 0.00013273,
    "INCLINATION": 97.4533,
    "RA_OF_ASC_NODE": 316.7242,
    "ARG_OF_PERICENTER": 94.896,
    "MEAN_ANOMALY": 265.2436,
    "EPHEMERIS_TYPE": 0,
    "CLASSIFICATION_TYPE": "U",
    "NORAD_CAT_ID": 42990,
    "ELEMENT_SET_NO": 999,
    "REV_AT_EPOCH": 48411,
    "BSTAR": 0.00027512591,
    "MEAN_MOTION_DOT": 0.00009941,
    "MEAN_MOTION_DDOT": 0
   }
  },
  {
   "norad": 42989,
   "name": "SKYSAT-C9",
   "intl": "2017-068C",
   "group": "resource",
   "gcat": {
    "class": "B",
    "category": "IMG",
    "owner": "PLABST",
    "state": "US"
   },
   "omm": {
    "OBJECT_NAME": "SKYSAT-C9",
    "OBJECT_ID": "2017-068C",
    "EPOCH": "2026-06-28T22:07:42.918528",
    "MEAN_MOTION": 15.41845493,
    "ECCENTRICITY": 0.00094879,
    "INCLINATION": 97.4437,
    "RA_OF_ASC_NODE": 317.9324,
    "ARG_OF_PERICENTER": 96.2624,
    "MEAN_ANOMALY": 263.9703,
    "EPHEMERIS_TYPE": 0,
    "CLASSIFICATION_TYPE": "U",
    "NORAD_CAT_ID": 42989,
    "ELEMENT_SET_NO": 999,
    "REV_AT_EPOCH": 48456,
    "BSTAR": 0.00030189102,
    "MEAN_MOTION_DOT": 0.00012739,
    "MEAN_MOTION_DDOT": 0
   }
  }
 ]
}
